ARABSAT-1A              
1 15560U 85015A   24152.56569035 -.00000063  00000+0  00000+0 0  9997
2 15560  12.7376 336.5070 0030523 210.2321 333.4335  1.00396018118522
COSMOS 1629             
1 15574U 85016A   24152.76155984 -.00000224  00000+0  00000+0 0  9998
2 15574  10.4967 319.6422 0006180 216.6248 320.5011  1.00252020142979
GSTAR 1                 
1 15677U 85035A   24152.60303994 -.00000117  00000+0  00000+0 0  9993
2 15677  14.6009 354.4047 0007875 100.7451 266.1337  1.00272605117729
TELECOM 1B              
1 15678U 85035B   24152.66573779  .00000101  00000+0  00000+0 0  9992
2 15678  11.3376 326.0288 0002448 132.5022 241.5603  1.00190069129539
ARABSAT-1B              
1 15825U 85048C   24153.50150219 -.00000319  00000+0  00000+0 0  9996
2 15825  13.1749 339.4937 0013283  24.2499 162.7154  1.00435808127985
TELSTAR 303             
1 15826U 85048D   24152.70037280  .00000054  00000+0  00000+0 0  9995
2 15826  14.5714 351.8992 0003249 163.7856   9.9060  0.99878663 39043
INTELSAT 511            
1 15873U 85055A   24152.60060331 -.00000022  00000+0  00000+0 0  9993
2 15873  13.8377 344.2333 0016132  89.4606 276.1224  1.00077480117047
RADUGA 16               
1 15946U 85070A   24152.76103771 -.00000238  00000+0  00000+0 0  9993
2 15946  10.7262 321.8672 0002045 185.7377 346.2899  1.00272994114745
OPTUS A1 (AUSSAT 1)     
1 15993U 85076B   24152.56603844  .00000032  00000+0  00000+0 0  9996
2 15993  13.9325 344.2925 0002546  67.1468 110.0325  0.99755214112143
ASC 1                   
1 15994U 85076C   24153.46634503 -.00000249  00000+0  00000+0 0  9994
2 15994  14.2770 348.9408 0006329  99.1071 248.4173  1.00274502110534
COSMOS 1700             
1 16199U 85102A   24152.71740417 -.00000229  00000+0  00000+0 0  9999
2 16199  10.9706 323.8412 0006570 185.7714  84.9310  1.00308520144187
SL-12 R/B(2)            
1 16214U 85102D   24152.42686145 -.00000298  00000+0  00000+0 0  9998
2 16214  10.7236 323.0344 0022869 141.2958  26.7469  1.00636675117334
RADUGA 17               
1 16250U 85107A   24152.69854532  .00000056  00000+0  00000+0 0  9990
2 16250  10.8798 323.3533 0014366 201.6919 351.2470  1.00168672144191
OPTUS A2 (AUSSAT 2)     
1 16275U 85109C   24152.70604715 -.00000023  00000+0  00000+0 0  9992
2 16275  13.9552 345.5898 0000533 292.5549 112.8895  0.99935012 39078
STTW-1                  
1 16526U 86010A   24152.56612546 -.00000039  00000+0  00000+0 0  9995
2 16526  11.7365 328.6550 0002146 188.1769   5.5088  1.00211149147970
GSTAR 2                 
1 16649U 86026A   24152.77017508  .00000000  00000+0  00000+0 0  9995
2 16649  14.5873 351.4705 0004322  78.5200 113.7197  0.99800205109196
BRASILSAT 2             
1 16650U 86026B   24152.78916341  .00000081  00000+0  00000+0 0  9990
2 16650  14.7502 356.0217 0001900  64.0849 172.1499  0.99636027119280
COSMOS 1738             
1 16667U 86027A   24152.79536719 -.00000276  00000+0  00000+0 0  9994
2 16667  11.5417 323.3264 0015708 128.4713 227.3814  1.00260839139860
GORIZONT 12             
1 16769U 86044A   24153.45398413 -.00000365  00000+0  00000+0 0  9996
2 16769  11.2447 326.1047 0001562 248.3012 307.9258  1.00254958139794
SL-12 R/B(2)            
1 17125U 86090D   24152.06893907  .00000080  00000+0  00000+0 0  9991
2 17125  11.4932 327.7635 0011677 158.2825 201.7311  1.00178389137377
GOES 7                  
1 17561U 87022A   24152.76843463 -.00000040  00000+0  00000+0 0  9997
2 17561  13.6094 342.9802 0004190  81.7756 109.4166  0.99906570119509
AGILA 1 (PALAPA B2P)    
1 17706U 87029A   24152.67095914  .00000034  00000+0  00000+0 0  9997
2 17706  14.6708 353.8372 0004551  84.9196 289.0963  0.99904608 35079
SL-12 R/B(2)            
1 17872U 76092F   24152.85068748  .00000044  00000+0  00000+0 0  9995
2 17872   5.3866 281.0314 0018618 176.2318 160.2551  1.00231780111438
SL-12 R/B(2)            
1 17873U 79035E   24153.21514493 -.00000278  00000+0  00000+0 0  9990
2 17873   7.0911 290.4492 0028342 225.9408 108.3472  1.00153048177692
SL-12 R/B(2)            
1 17874U 84016F   24152.50396566 -.00000122  00000+0  00000+0 0  9994
2 17874  10.0260 316.0986 0037287 205.5659 344.4282  1.00328098115364
COSMOS 1888             
1 18384U 87084A   24152.63123529  .00000126  00000+0  00000+0 0  9993
2 18384  11.8562 331.1001 0003691 169.3275  12.9053  1.00363797134206
SL-12 R/B(2)            
1 18387U 87084D   24152.76712928 -.00000055  00000+0  00000+0 0  9999
2 18387  11.9920 331.6728 0028641 225.4559 330.3100  1.00057879141300
COSMOS 1894             
1 18443U 87091A   24152.66573779  .00000102  00000+0  00000+0 0  9990
2 18443  11.8262 330.5878 0002946  64.0104 305.2923  1.00353003113332
SL-12 R/B(2)            
1 18446U 87091D   24152.45054615 -.00000180  00000+0  00000+0 0  9990
2 18446  11.8537 330.7631 0020683 238.7299 111.1729  1.00153104122510
COSMOS 1897             
1 18575U 87096A   24152.63589389 -.00000282  00000+0  00000+0 0  9992
2 18575  12.0562 331.9459 0009874 117.4601 122.7334  1.00301262133707
SL-12 R/B(2)            
1 18578U 87096D   24153.32966008 -.00000262  00000+0  00000+0 0  9997
2 18578  11.8646 331.2459 0022137 220.7720 134.6031  1.00563318130604
RADUGA 21               
1 18631U 87100A   24153.40079847 -.00000302  00000+0  00000+0 0  9993
2 18631  12.3778 330.6836 0003052 154.8128 208.3977  1.00224853133601
STTW-2                  
1 18922U 88014A   24152.56873615 -.00000190  00000+0  00000+0 0  9997
2 18922  13.8705 345.1590 0007918 143.6131  47.9141  1.00300412132620
SPACENET 3R             
1 18951U 88018A   24152.76921784 -.00000058  00000+0  00000+0 0  9999
2 18951  14.5703   5.2630 0001082 160.3644  12.4115  0.99665653117177
COSMOS 1940             
1 19073U 88034A   24153.30037811 -.00000028  00000+0  00000+0 0  9990
2 19073  12.0007 331.7394 0018643 271.5000 278.8999  1.00654670113858
SL-12 R/B(2)            
1 19076U 88034D   24153.46660611 -.00000232  00000+0  00000+0 0  9997
2 19076  12.2789 332.7046 0025999 168.0625 197.6841  1.00087296131746
INSAT-1C                
1 19330U 88063A   24152.56621249 -.00000046  00000+0  00000+0 0  9999
2 19330  12.3263 332.9412 0011652 131.1921  58.4088  1.00231031112853
COSMOS 1961             
1 19344U 88066A   24153.49836937 -.00000150  00000+0  00000+0 0  9998
2 19344  12.4076 334.7871 0007081 137.5561  36.7384  1.00264803131583
GORIZONT 16             
1 19397U 88071A   24153.32966008 -.00000300  00000+0  00000+0 0  9994
2 19397  12.4749 334.8887 0013795  80.7001 270.2483  0.99981956130770
SL-12 R/B(2)            
1 19400U 88071D   24153.46289644 -.00000374  00000+0  00000+0 0  9999
2 19400  12.2151 334.1533 0019532 211.1183 348.3704  1.00547842125331
GSTAR 3                 
1 19483U 88081A   24153.46164581 -.00000110  00000+0  00000+0 0  9991
2 19483  12.3531 324.3352 0008750 175.2412 171.6984  1.00272621127148
SBS 5                   
1 19484U 88081B   24152.70576821  .00000099  00000+0  00000+0 0  9997
2 19484  14.4314   6.4928 0003374 330.0708 218.8223  0.99786015 39016
TDRS 3                  
1 19548U 88091B   24151.89848609 -.00000302  00000+0  00000+0 0  9992
2 19548  13.1761 346.0464 0034914 342.7979 194.5435  1.00277436117894
IUS R/B(2)              
1 19550U 88091D   24152.73240725  .00000079  00000+0  00000+0 0  9994
2 19550  13.1076 336.5290 0016723 282.3055  81.1661  1.00458868122617
RADUGA 22               
1 19596U 88095A   24152.75118878  .00000111  00000+0  00000+0 0  9990
2 19596  12.4819 335.2741 0008099 164.1306  43.8335  1.00327734114165
SKYNET 4B               
1 19687U 88109A   24152.26519687 -.00000164  00000+0  00000+0 0  9995
2 19687  13.8111 342.3351 0001063 221.6245 135.9308  0.99677598110710
STTW-3                  
1 19710U 88111A   24152.70298348  .00000118  00000+0  00000+0 0  9990
2 19710  14.4472 351.2097 0007551 144.7726  44.1298  1.00281885123353
RADUGA 23               
1 19928U 89030A   24152.63419406  .00000086  00000+0  00000+0 0  9998
2 19928  12.6743 337.1159 0021783 180.4558  11.8219  1.00195711127361
SUPERBIRD-A             
1 20040U 89041A   24151.40834021 -.00000217  00000+0  00000+0 0  9992
2 20040  13.0438 337.5405 0006903 100.9586 118.6319  0.99756985127008
DFS 1                   
1 20041U 89041B   24152.25788059  .00000007  00000+0  00000+0 0  9992
2 20041  14.3470 352.2604 0009568 289.9928 285.1283  1.00665611116974
TVSAT 2                 
1 20168U 89062A   24153.10813292 -.00000136  00000+0  00000+0 0  9992
2 20168  14.7100   1.4292 0007248 142.7720  52.5367  0.99842485127045
FLTSATCOM 8 (USA 46)    
1 20253U 89077A   24153.43602920 -.00000371  00000+0  00000+0 0  9994
2 20253  12.6392 355.6553 0005682  66.1699 111.2392  1.00277950253120
GORIZONT 19             
1 20263U 89081A   24153.13297769  .00000118  00000+0  00000+0 0  9996
2 20263  12.8968 338.6743 0003819 220.3271 140.3344  1.00230610127014
RADUGA 24               
1 20367U 89098A   24153.50254646 -.00000324  00000+0  00000+0 0  9997
2 20367  13.3108 339.1976 0002105 189.5984   3.4613  1.00239360125555
COSMOS 2054             
1 20391U 89101A   24152.01807663 -.00000182  00000+0  00000+0 0  9999
2 20391  13.0364 339.4948 0004811 143.2941 112.2831  1.00263947126371
STTW-4                  
1 20473U 90011A   24152.67679266 -.00000311  00000+0  00000+0 0  9994
2 20473  14.5202 352.0747 0006481 131.1132 108.0307  1.00266964125552
RADUGA 25               
1 20499U 90016A   24152.59668729  .00000060  00000+0  00000+0 0  9990
2 20499  13.1053 339.9744 0005895 166.5195 180.2096  1.00362284125413
INSAT-1D                
1 20643U 90051A   24152.56864913 -.00000175  00000+0  00000+0 0  9998
2 20643  14.6932 359.6584 0018541 163.9525  12.0880  1.00268717111264
GORIZONT 20             
1 20659U 90054A   24153.49932663 -.00000210  00000+0  00000+0 0  9999
2 20659  13.4140 341.4156 0006933 194.0781 338.9128  1.00317959124200
SL-12 R/B(2)            
1 20662U 90054D   24152.08621079 -.00000035  00000+0  00000+0 0  9998
2 20662  13.2735 340.8847 0016258  93.5805 266.5763  1.00519787124285
